{"type": "FeatureCollection", "features": [ {"type": "Feature", "properties": {"norad_id": 31040, "name": "FENGYUN 1C DEB", "group": "fengyun-1c-debris", "lat": -8.206317280693703, "lon": 154.0755577643902, "alt_km": 792.9616230508755, "timestamp": "2025-12-11T10:53:16.167661+00:00", "meta": {"OBJECT_NAME": "FENGYUN 1C DEB", "OBJECT_ID": "1999-025BEJ", "EPOCH": "2025-12-10T11:00:22.410144", "MEAN_MOTION": 14.17667156, "ECCENTRICITY": 0.00621545, "INCLINATION": 98.658, "RA_OF_ASC_NODE": 334.3649, "ARG_OF_PERICENTER": 200.6861, "MEAN_ANOMALY": 312.0485, "EPHEMERIS_TYPE": 0, "CLASSIFICATION_TYPE": "U", "NORAD_CAT_ID": 31040, "ELEMENT_SET_NO": 999, "REV_AT_EPOCH": 96674, "BSTAR": 0.00046131503, "MEAN_MOTION_DOT": 9.14e-06, "MEAN_MOTION_DDOT": 0}, "tle": {"line1": "1 31040U 99025BEJ 25344.45859271  .00000914  00000+0  46132-3 0  9994", "line2": "2 31040  98.6580 334.3649 0062154 200.6861 312.0485 14.17667156966748"}}, "geometry": {"type": "Point", "coordinates": [154.0755577643902, -8.206317280693703]}}, {"type": "Feature", "properties": {"norad_id": 31041, "name": "FENGYUN 1C DEB", "group": "fengyun-1c-debris", "lat": 64.64939695584593, "lon": -5.966815685336012, "alt_km": 839.2148353479215, "timestamp": "2025-12-11T10:53:16.167672+00:00", "meta": {"OBJECT_NAME": "FENGYUN 1C DEB", "OBJECT_ID": "1999-025BEK", "EPOCH": "2025-12-10T21:01:43.758624", "MEAN_MOTION": 14.17809745, "ECCENTRICITY": 0.0086829, "INCLINATION": 99.2054, "RA_OF_ASC_NODE": 13.4507, "ARG_OF_PERICENTER": 325.6458, "MEAN_ANOMALY": 33.912, "EPHEMERIS_TYPE": 0, "CLASSIFICATION_TYPE": "U", "NORAD_CAT_ID": 31041, "ELEMENT_SET_NO": 999, "REV_AT_EPOCH": 95463, "BSTAR": 0.0033091, "MEAN_MOTION_DOT": 6.966e-05, "MEAN_MOTION_DDOT": 0}, "tle": {"line1": "1 31041U 99025BEK 25344.87620091  .00006966  00000+0  33091-2 0  9999", "line2": "2 31041  99.2054  13.4507 0086829 325.6458  33.9120 14.17809745954637"}}, "geometry": {"type": "Point", "coordinates": [-5.966815685336012, 64.64939695584593]}}, {"type": "Feature", "properties": {"norad_id": 31043, "name": "FENGYUN 1C DEB", "group": "fengyun-1c-debris", "lat": 60.772283555151105, "lon": -160.69550698556486, "alt_km": 869.0345200053598, "timestamp": "2025-12-11T10:53:16.167682+00:00", "meta": {"OBJECT_NAME": "FENGYUN 1C DEB", "OBJECT_ID": "1999-025BEM", "EPOCH": "2025-12-11T00:14:30.194880", "MEAN_MOTION": 14.08424046, "ECCENTRICITY": 0.0041438, "INCLINATION": 98.7645, "RA_OF_ASC_NODE": 2.8685, "ARG_OF_PERICENTER": 9.0828, "MEAN_ANOMALY": 20.5299, "EPHEMERIS_TYPE": 0, "CLASSIFICATION_TYPE": "U", "NORAD_CAT_ID": 31043, "ELEMENT_SET_NO": 999, "REV_AT_EPOCH": 95963, "BSTAR": 0.00063146, "MEAN_MOTION_DOT": 1.048e-05, "MEAN_MOTION_DDOT": 0}, "tle": {"line1": "1 31043U 99025BEM 25345.01007170  .00001048  00000+0  63146-3 0  9996", "line2": "2 31043  98.7645   2.8685 0041438   9.0828  20.5299 14.08424046959630"}}, "geometry": {"type": "Point", "coordinates": [-160.69550698556486, 60.772283555151105]}}, {"type": "Feature", "properties": {"norad_id": 31046, "name": "FENGYUN 1C DEB", "group": "fengyun-1c-debris", "lat": 38.59458397664746, "lon": 97.78715374854977, "alt_km": 665.8658565027035, "timestamp": "2025-12-11T10:53:16.167693+00:00", "meta": {"OBJECT_NAME": "FENGYUN 1C DEB", "OBJECT_ID": "1999-025BEQ", "EPOCH": "2025-12-10T06:57:05.404032", "MEAN_MOTION": 14.63615322, "ECCENTRICITY": 0.0046888, "INCLINATION": 98.9682, "RA_OF_ASC_NODE": 103.7626, "ARG_OF_PERICENTER": 110.921, "MEAN_ANOMALY": 279.0126, "EPHEMERIS_TYPE": 0, "CLASSIFICATION_TYPE": "U", "NORAD_CAT_ID": 31046, "ELEMENT_SET_NO": 999, "REV_AT_EPOCH": 96607, "BSTAR": 0.0070034, "MEAN_MOTION_DOT": 0.00037111, "MEAN_MOTION_DDOT": 0}, "tle": {"line1": "1 31046U 99025BEQ 25344.28964588  .00037111  00000+0  70034-2 0  9995", "line2": "2 31046  98.9682 103.7626 0046888 110.9210 279.0126 14.63615322966079"}}, "geometry": {"type": "Point", "coordinates": [97.78715374854977, 38.59458397664746]}}, {"type": "Feature", "properties": {"norad_id": 31047, "name": "FENGYUN 1C DEB", "group": "fengyun-1c-debris", "lat": 62.163520393458406, "lon": -33.93374638430273, "alt_km": 848.808869718986, "timestamp": "2025-12-11T10:53:16.167703+00:00", "meta": {"OBJECT_NAME": "FENGYUN 1C DEB", "OBJECT_ID": "1999-025BER", "EPOCH": "2025-12-08T23:24:24.960096", "MEAN_MOTION": 14.13832824, "ECCENTRICITY": 0.0025492, "INCLINATION": 98.6996, "RA_OF_ASC_NODE": 340.51, "ARG_OF_PERICENTER": 188.6365, "MEAN_ANOMALY": 227.7642, "EPHEMERIS_TYPE": 0, "CLASSIFICATION_TYPE": "U", "NORAD_CAT_ID": 31047, "ELEMENT_SET_NO": 999, "REV_AT_EPOCH": 96306, "BSTAR": 0.00057247, "MEAN_MOTION_DOT": 1.045e-05, "MEAN_MOTION_DDOT": 0}, "tle": {"line1": "1 31047U 99025BER 25342.97528889  .00001045  00000+0  57247-3 0  9999", "line2": "2 31047  98.6996 340.5100 0025492 188.6365 227.7642 14.13832824963066"}}, "geometry": {"type": "Point", "coordinates": [-33.93374638430273, 62.163520393458406]}}, {"type": "Feature", "properties": {"norad_id": 31051, "name": "FENGYUN 1C DEB", "group": "fengyun-1c-debris", "lat": -35.55231059007691, "lon": -170.32142728643169, "alt_km": 880.7385275881852, "timestamp": "2025-12-11T10:53:16.167714+00:00", "meta": {"OBJECT_NAME": "FENGYUN 1C DEB", "OBJECT_ID": "1999-025BEV", "EPOCH": "2025-11-29T08:36:57.509280", "MEAN_MOTION": 14.03023318, "ECCENTRICITY": 0.00528722, "INCLINATION": 98.8207, "RA_OF_ASC_NODE": 4.3303, "ARG_OF_PERICENTER": 172.6282, "MEAN_ANOMALY": 187.5674, "EPHEMERIS_TYPE": 0, "CLASSIFICATION_TYPE": "U", "NORAD_CAT_ID": 31051, "ELEMENT_SET_NO": 999, "REV_AT_EPOCH": 63631, "BSTAR": 0.00023865273, "MEAN_MOTION_DOT": 3.33e-06, "MEAN_MOTION_DDOT": 0}, "tle": {"line1": "1 31051U 99025BEV 25333.35899895  .00000333  00000+0  23865-3 0  9992", "line2": "2 31051  98.8207   4.3303 0052872 172.6282 187.5674 14.03023318636313"}}, "geometry": {"type": "Point", "coordinates": [-170.32142728643169, -35.55231059007691]}}, {"type": "Feature", "properties": {"norad_id": 31053, "name": "FENGYUN 1C DEB", "group": "fengyun-1c-debris", "lat": -36.801576958565256, "lon": -78.59350200680134, "alt_km": 1089.049105030168, "timestamp": "2025-12-11T10:53:16.167725+00:00", "meta": {"OBJECT_NAME": "FENGYUN 1C DEB", "OBJECT_ID": "1999-025BEX", "EPOCH": "2025-12-09T07:15:11.826144", "MEAN_MOTION": 13.75848728, "ECCENTRICITY": 0.0309376, "INCLINATION": 98.7939, "RA_OF_ASC_NODE": 106.0672, "ARG_OF_PERICENTER": 104.1614, "MEAN_ANOMALY": 259.4116, "EPHEMERIS_TYPE": 0, "CLASSIFICATION_TYPE": "U", "NORAD_CAT_ID": 31053, "ELEMENT_SET_NO": 999, "REV_AT_EPOCH": 93429, "BSTAR": 0.0025997, "MEAN_MOTION_DOT": 3.538e-05, "MEAN_MOTION_DDOT": 0}, "tle": {"line1": "1 31053U 99025BEX 25343.30222021  .00003538  00000+0  25997-2 0  9998", "line2": "2 31053  98.7939 106.0672 0309376 104.1614 259.4116 13.75848728934294"}}, "geometry": {"type": "Point", "coordinates": [-78.59350200680134, -36.801576958565256]}}, {"type": "Feature", "properties": {"norad_id": 31054, "name": "FENGYUN 1C DEB", "group": "fengyun-1c-debris", "lat": -8.433943217610956, "lon": 177.22452064618238, "alt_km": 852.618335131323, "timestamp": "2025-12-11T10:53:16.167735+00:00", "meta": {"OBJECT_NAME": "FENGYUN 1C DEB", "OBJECT_ID": "1999-025BEY", "EPOCH": "2025-12-10T12:36:50.678784", "MEAN_MOTION": 14.12167817, "ECCENTRICITY": 0.00106231, "INCLINATION": 98.6904, "RA_OF_ASC_NODE": 357.6244, "ARG_OF_PERICENTER": 126.2609, "MEAN_ANOMALY": 26.543, "EPHEMERIS_TYPE": 0, "CLASSIFICATION_TYPE": "U", "NORAD_CAT_ID": 31054, "ELEMENT_SET_NO": 999, "REV_AT_EPOCH": 96732, "BSTAR": 0.00022020018, "MEAN_MOTION_DOT": 3.62e-06, "MEAN_MOTION_DDOT": 0}, "tle": {"line1": "1 31054U 99025BEY 25344.52558656  .00000362  00000+0  22020-3 0  9997", "line2": "2 31054  98.6904 357.6244 0010623 126.2609  26.5430 14.12167817967325"}}, "geometry": {"type": "Point", "coordinates": [177.22452064618238, -8.433943217610956]}}, {"type": "Feature", "properties": {"norad_id": 31055, "name": "FENGYUN 1C DEB", "group": "fengyun-1c-debris", "lat": -39.90722425273511, "lon": 24.106226020109524, "alt_km": 851.9846117766429, "timestamp": "2025-12-11T10:53:16.167745+00:00", "meta": {"OBJECT_NAME": "FENGYUN 1C DEB", "OBJECT_ID": "1999-025BEZ", "EPOCH": "2025-12-11T01:00:16.432704", "MEAN_MOTION": 14.10373228, "ECCENTRICITY": 0.0023998, "INCLINATION": 98.7601, "RA_OF_ASC_NODE": 16.2957, "ARG_OF_PERICENTER": 276.9939, "MEAN_ANOMALY": 112.7377, "EPHEMERIS_TYPE": 0, "CLASSIFICATION_TYPE": "U", "NORAD_CAT_ID": 31055, "ELEMENT_SET_NO": 999, "REV_AT_EPOCH": 96098, "BSTAR": 0.000466, "MEAN_MOTION_DOT": 7.87e-06, "MEAN_MOTION_DDOT": 0}, "tle": {"line1": "1 31055U 99025BEZ 25345.04185686  .00000787  00000+0  46600-3 0  9996", "line2": "2 31055  98.7601  16.2957 0023998 276.9939 112.7377 14.10373228960984"}}, "geometry": {"type": "Point", "coordinates": [24.106226020109524, -39.90722425273511]}}, {"type": "Feature", "properties": {"norad_id": 31056, "name": "FENGYUN 1C DEB", "group": "fengyun-1c-debris", "lat": -79.46817539304173, "lon": 92.90806689179057, "alt_km": 849.6087658316355, "timestamp": "2025-12-11T10:53:16.167756+00:00", "meta": {"OBJECT_NAME": "FENGYUN 1C DEB", "OBJECT_ID": "1999-025BFA", "EPOCH": "2025-12-10T10:35:47.824800", "MEAN_MOTION": 14.14300186, "ECCENTRICITY": 0.00256827, "INCLINATION": 98.6687, "RA_OF_ASC_NODE": 327.07, "ARG_OF_PERICENTER": 349.5885, "MEAN_ANOMALY": 164.3226, "EPHEMERIS_TYPE": 0, "CLASSIFICATION_TYPE": "U", "NORAD_CAT_ID": 31056, "ELEMENT_SET_NO": 999, "REV_AT_EPOCH": 96785, "BSTAR": 0.00057857396, "MEAN_MOTION_DOT": 1.066e-05, "MEAN_MOTION_DDOT": 0}, "tle": {"line1": "1 31056U 99025BFA 25344.44152575  .00001066  00000+0  57857-3 0  9998", "line2": "2 31056  98.6687 327.0700 0025682 349.5885 164.3226 14.14300186967852"}}, "geometry": {"type": "Point", "coordinates": [92.90806689179057, -79.46817539304173]}}]}